start=new Date('2023-04-09T00:00:00.000Z').valueOf();
sats=[{"RA_OF_ASC_NODE":"357.0705","APOAPSIS":"540.689","BSTAR":"0.00047128000000","ELEMENT_SET_NO":"999","MEAN_ANOMALY":"274.5941","TLE_LINE2":"2 50183  53.2175 357.0705 0001392  85.5211 274.5941 15.08846274 75634","NORAD_CAT_ID":"50183","MEAN_ELEMENT_THEORY":"SGP4","SEMIMAJOR_AXIS":"6917.861","INCLINATION":"53.2175","CLASSIFICATION_TYPE":"U","FILE":"3883527","SITE":"AFWTR","EPHEMERIS_TYPE":"0","PERIOD":"95.437","LAUNCH_DATE":"2021-12-18","OBJECT_NAME":"STARLINK-3281","GP_ID":"229730214","ECCENTRICITY":"0.00013920","RCS_SIZE":"LARGE","EPOCH":"2023-04-08T03:13:43.569984","MEAN_MOTION":"15.08846274","TIME_SYSTEM":"UTC","TLE_LINE1":"1 50183U 21125AD  23098.13453206  .00007222  00000-0  47128-3 0  9992","MEAN_MOTION_DDOT":"0.0000000000000","PERIAPSIS":"538.763","DECAY_DATE":null,"MEAN_MOTION_DOT":"0.00007222","CENTER_NAME":"EARTH","REV_AT_EPOCH":"7563","COUNTRY_CODE":"US","ARG_OF_PERICENTER":"85.5211","REF_FRAME":"TEME","OBJECT_TYPE":"PAYLOAD","OBJECT_ID":"2021-125AD"},{"PERIAPSIS":"539.164","MEAN_MOTION_DDOT":"0.0000000000000","TLE_LINE1":"1 50185U 21125AF  23098.80429328  .00016060  00000-0  10247-2 0  9997","TIME_SYSTEM":"UTC","MEAN_MOTION":"15.08846114","OBJECT_ID":"2021-125AF","OBJECT_TYPE":"PAYLOAD","REF_FRAME":"TEME","ARG_OF_PERICENTER":"93.4259","REV_AT_EPOCH":"7521","COUNTRY_CODE":"US","CENTER_NAME":"EARTH","MEAN_MOTION_DOT":"0.00016060","DECAY_DATE":null,"CLASSIFICATION_TYPE":"U","FILE":"3883760","INCLINATION":"53.2169","SEMIMAJOR_AXIS":"6917.862","NORAD_CAT_ID":"50185","MEAN_ELEMENT_THEORY":"SGP4","TLE_LINE2":"2 50185  53.2169 354.0663 0000813  93.4259 266.6826 15.08846114 75217","MEAN_ANOMALY":"266.6826","BSTAR":"0.00102470000000","ELEMENT_SET_NO":"999","APOAPSIS":"540.289","RA_OF_ASC_NODE":"354.0663","EPOCH":"2023-04-08T19:18:10.939392","RCS_SIZE":"LARGE","ECCENTRICITY":"0.00008130","GP_ID":"229739637","OBJECT_NAME":"STARLINK-3279","LAUNCH_DATE":"2021-12-18","PERIOD":"95.437","EPHEMERIS_TYPE":"0","SITE":"AFWTR"},{"TIME_SYSTEM":"UTC","MEAN_MOTION":"15.08842117","TLE_LINE1":"1 50186U 21125AG  23098.75185478  .00000560  00000-0  53282-4 0  9993","MEAN_MOTION_DDOT":"0.0000000000000","PERIAPSIS":"538.663","DECAY_DATE":null,"MEAN_MOTION_DOT":"0.00000560","REV_AT_EPOCH":"7505","COUNTRY_CODE":"US","CENTER_NAME":"EARTH","ARG_OF_PERICENTER":"87.8102","REF_FRAME":"TEME","OBJECT_TYPE":"PAYLOAD","OBJECT_ID":"2021-125AG","RA_OF_ASC_NODE":"4.2995","ELEMENT_SET_NO":"999","BSTAR":"0.00005328200000","APOAPSIS":"540.815","MEAN_ANOMALY":"272.3068","TLE_LINE2":"2 50186  53.2165   4.2995 0001555  87.8102 272.3068 15.08842117 75057","MEAN_ELEMENT_THEORY":"SGP4","NORAD_CAT_ID":"50186","INCLINATION":"53.2165","SEMIMAJOR_AXIS":"6917.874","FILE":"3883760","CLASSIFICATION_TYPE":"U","SITE":"AFWTR","PERIOD":"95.437","EPHEMERIS_TYPE":"0","LAUNCH_DATE":"2021-12-18","OBJECT_NAME":"STARLINK-3274","RCS_SIZE":"LARGE","ECCENTRICITY":"0.00015550","GP_ID":"229740002","EPOCH":"2023-04-08T18:02:40.252992"},{"OBJECT_TYPE":"PAYLOAD","OBJECT_ID":"2021-125AH","REF_FRAME":"TEME","CENTER_NAME":"EARTH","COUNTRY_CODE":"US","REV_AT_EPOCH":"7273","ARG_OF_PERICENTER":"84.1643","DECAY_DATE":null,"MEAN_MOTION_DOT":"0.00008592","PERIAPSIS":"538.986","MEAN_MOTION_DDOT":"0.0000000000000","TLE_LINE1":"1 50187U 21125AH  23098.84569797  .00008592  00000-0  55735-3 0  9991","MEAN_MOTION":"15.08835776","TIME_SYSTEM":"UTC","EPOCH":"2023-04-08T20:17:48.304608","ECCENTRICITY":"0.00011170","GP_ID":"229739998","RCS_SIZE":"LARGE","EPHEMERIS_TYPE":"0","PERIOD":"95.438","OBJECT_NAME":"STARLINK-3272","LAUNCH_DATE":"2021-12-18","SITE":"AFWTR","INCLINATION":"53.2174","SEMIMAJOR_AXIS":"6917.893","FILE":"3883760","CLASSIFICATION_TYPE":"U","MEAN_ELEMENT_THEORY":"SGP4","NORAD_CAT_ID":"50187","MEAN_ANOMALY":"275.9477","TLE_LINE2":"2 50187  53.2174 343.8826 0001117  84.1643 275.9477 15.08835776 72735","RA_OF_ASC_NODE":"343.8826","APOAPSIS":"540.531","ELEMENT_SET_NO":"999","BSTAR":"0.00055735000000"},{"NORAD_CAT_ID":"50188","MEAN_ELEMENT_THEORY":"SGP4","SEMIMAJOR_AXIS":"6888.831","INCLINATION":"53.2197","FILE":"3883527","CLASSIFICATION_TYPE":"U","RA_OF_ASC_NODE":"344.1979","APOAPSIS":"511.790","BSTAR":"0.00254390000000","ELEMENT_SET_NO":"999","MEAN_ANOMALY":"246.5253","TLE_LINE2":"2 50188  53.2197 344.1979 0001588 113.5910 246.5253 15.18393952 75803","GP_ID":"229730714","ECCENTRICITY":"0.00015880","RCS_SIZE":"LARGE","EPOCH":"2023-04-08T02:14:29.203584","SITE":"AFWTR","EPHEMERIS_TYPE":"0","PERIOD":"94.837","LAUNCH_DATE":"2021-12-18","OBJECT_NAME":"STARLINK-3275","MEAN_MOTION_DDOT":"0.0000000000000","PERIAPSIS":"509.602","MEAN_MOTION":"15.18393952","TIME_SYSTEM":"UTC","TLE_LINE1":"1 50188U 21125AJ  23098.09339356  .00053024  00000-0  25439-2 0  9992","REF_FRAME":"TEME","OBJECT_TYPE":"PAYLOAD","OBJECT_ID":"2021-125AJ","DECAY_DATE":null,"MEAN_MOTION_DOT":"0.00053024","CENTER_NAME":"EARTH","COUNTRY_CODE":"US","REV_AT_EPOCH":"7580","ARG_OF_PERICENTER":"113.5910"},{"ARG_OF_PERICENTER":"90.9809","COUNTRY_CODE":"US","REV_AT_EPOCH":"7562","CENTER_NAME":"EARTH","MEAN_MOTION_DOT":"0.00005630","DECAY_DATE":null,"OBJECT_ID":"2021-125AK","OBJECT_TYPE":"PAYLOAD","REF_FRAME":"TEME","TLE_LINE1":"1 50189U 21125AK  23098.12444531  .00005630  00000-0  37137-3 0  9998","TIME_SYSTEM":"UTC","MEAN_MOTION":"15.08857441","PERIAPSIS":"538.832","MEAN_MOTION_DDOT":"0.0000000000000","LAUNCH_DATE":"2021-12-18","OBJECT_NAME":"STARLINK-3276","PERIOD":"95.436","EPHEMERIS_TYPE":"0","SITE":"AFWTR","EPOCH":"2023-04-08T02:59:12.074784","RCS_SIZE":"LARGE","GP_ID":"229730966","ECCENTRICITY":"0.00012440","TLE_LINE2":"2 50189  53.2180 357.1259 0001244  90.9809 269.1326 15.08857441 75624","MEAN_ANOMALY":"269.1326","BSTAR":"0.00037137000000","ELEMENT_SET_NO":"999","APOAPSIS":"540.553","RA_OF_ASC_NODE":"357.1259","FILE":"3883527","CLASSIFICATION_TYPE":"U","INCLINATION":"53.2180","SEMIMAJOR_AXIS":"6917.827","MEAN_ELEMENT_THEORY":"SGP4","NORAD_CAT_ID":"50189"},{"INCLINATION":"53.2170","SEMIMAJOR_AXIS":"6917.854","CLASSIFICATION_TYPE":"U","FILE":"3883527","NORAD_CAT_ID":"50190","MEAN_ELEMENT_THEORY":"SGP4","MEAN_ANOMALY":"277.5352","TLE_LINE2":"2 50190  53.2170 347.2005 0001040  82.5758 277.5352 15.08848528 75716","RA_OF_ASC_NODE":"347.2005","ELEMENT_SET_NO":"999","BSTAR":"0.00059214000000","APOAPSIS":"540.439","EPOCH":"2023-04-08T02:32:39.467904","RCS_SIZE":"LARGE","GP_ID":"229729960","ECCENTRICITY":"0.00010400","PERIOD":"95.437","EPHEMERIS_TYPE":"0","LAUNCH_DATE":"2021-12-18","OBJECT_NAME":"STARLINK-3268","SITE":"AFWTR","PERIAPSIS":"539.000","MEAN_MOTION_DDOT":"0.0000000000000","TLE_LINE1":"1 50190U 21125AL  23098.10601236  .00009151  00000-0  59214-3 0  9997","TIME_SYSTEM":"UTC","MEAN_MOTION":"15.08848528","OBJECT_TYPE":"PAYLOAD","OBJECT_ID":"2021-125AL","REF_FRAME":"TEME","REV_AT_EPOCH":"7571","COUNTRY_CODE":"US","CENTER_NAME":"EARTH","ARG_OF_PERICENTER":"82.5758","DECAY_DATE":null,"MEAN_MOTION_DOT":"0.00009151"},{"MEAN_MOTION":"15.08849639","TIME_SYSTEM":"UTC","TLE_LINE1":"1 50191U 21125AM  23098.11520790  .00002797  00000-0  19367-3 0  9998","MEAN_MOTION_DDOT":"0.0000000000000","PERIAPSIS":"539.018","DECAY_DATE":null,"MEAN_MOTION_DOT":"0.00002797","CENTER_NAME":"EARTH","REV_AT_EPOCH":"7543","COUNTRY_CODE":"US","ARG_OF_PERICENTER":"84.9993","REF_FRAME":"TEME","OBJECT_ID":"2021-125AM","OBJECT_TYPE":"PAYLOAD","RA_OF_ASC_NODE":"7.1630","APOAPSIS":"540.414","ELEMENT_SET_NO":"999","BSTAR":"0.00019367000000","MEAN_ANOMALY":"275.1114","TLE_LINE2":"2 50191  53.2177   7.1630 0001009  84.9993 275.1114 15.08849639 75435","MEAN_ELEMENT_THEORY":"SGP4","NORAD_CAT_ID":"50191","SEMIMAJOR_AXIS":"6917.851","INCLINATION":"53.2177","CLASSIFICATION_TYPE":"U","FILE":"3883527","SITE":"AFWTR","EPHEMERIS_TYPE":"0","PERIOD":"95.437","OBJECT_NAME":"STARLINK-3273","LAUNCH_DATE":"2021-12-18","GP_ID":"229729965","ECCENTRICITY":"0.00010090","RCS_SIZE":"LARGE","EPOCH":"2023-04-08T02:45:53.962560"},{"PERIAPSIS":"538.977","MEAN_MOTION_DDOT":"0.0000000000000","TLE_LINE1":"1 50192U 21125AN  23098.83098119  .00005718  00000-0  37740-3 0  9994","TIME_SYSTEM":"UTC","MEAN_MOTION":"15.08806207","OBJECT_ID":"2021-125AN","OBJECT_TYPE":"PAYLOAD","REF_FRAME":"TEME","REV_AT_EPOCH":"7273","COUNTRY_CODE":"US","CENTER_NAME":"EARTH","ARG_OF_PERICENTER":"101.4192","DECAY_DATE":null,"MEAN_MOTION_DOT":"0.00005718","SEMIMAJOR_AXIS":"6917.984","INCLINATION":"53.2170","FILE":"3883760","CLASSIFICATION_TYPE":"U","NORAD_CAT_ID":"50192","MEAN_ELEMENT_THEORY":"SGP4","MEAN_ANOMALY":"258.6942","TLE_LINE2":"2 50192  53.2170 343.9424 0001260 101.4192 258.6942 15.08806207 72735","RA_OF_ASC_NODE":"343.9424","ELEMENT_SET_NO":"999","BSTAR":"0.00037740000000","APOAPSIS":"540.720","EPOCH":"2023-04-08T19:56:36.774816","RCS_SIZE":"LARGE","GP_ID":"229740005","ECCENTRICITY":"0.00012600","PERIOD":"95.440","EPHEMERIS_TYPE":"0","OBJECT_NAME":"STARLINK-3259","LAUNCH_DATE":"2021-12-18","SITE":"AFWTR"},{"OBJECT_TYPE":"PAYLOAD","OBJECT_ID":"2021-125AP","REF_FRAME":"TEME","COUNTRY_CODE":"US","REV_AT_EPOCH":"7534","CENTER_NAME":"EARTH","ARG_OF_PERICENTER":"109.2018","DECAY_DATE":null,"MEAN_MOTION_DOT":"0.00007815","PERIAPSIS":"538.798","MEAN_MOTION_DDOT":"0.0000000000000","TLE_LINE1":"1 50193U 21125AP  23098.84201622  .00007815  00000-0  50858-3 0  9996","TIME_SYSTEM":"UTC","MEAN_MOTION":"15.08836686","EPOCH":"2023-04-08T20:12:30.201408","RCS_SIZE":"LARGE","ECCENTRICITY":"0.00013840","GP_ID":"229739985","PERIOD":"95.438","EPHEMERIS_TYPE":"0","OBJECT_NAME":"STARLINK-3261","LAUNCH_DATE":"2021-12-18","SITE":"AFWTR","INCLINATION":"53.2176","SEMIMAJOR_AXIS":"6917.891","FILE":"3883759","CLASSIFICATION_TYPE":"U","MEAN_ELEMENT_THEORY":"SGP4","NORAD_CAT_ID":"50193","MEAN_ANOMALY":"250.9124","TLE_LINE2":"2 50193  53.2176 343.8965 0001384 109.2018 250.9124 15.08836686 75342","RA_OF_ASC_NODE":"343.8965","ELEMENT_SET_NO":"999","BSTAR":"0.00050858000000","APOAPSIS":"540.713"}];
